[{"OBJECT_NAME":"STARLINK-31153","OBJECT_ID":"2024-038X","EPOCH":"2026-03-09T21:54:52.130304","MEAN_MOTION":15.27559391,"ECCENTRICITY":0.00017653,"INCLINATION":43.0079,"RA_OF_ASC_NODE":22.1962,"ARG_OF_PERICENTER":275.4119,"MEAN_ANOMALY":84.6531,"EPHEMERIS_TYPE":0,"CLASSIFICATION_TYPE":"U","NORAD_CAT_ID":59044,"ELEMENT_SET_NO":999,"REV_AT_EPOCH":11472,"BSTAR":-2.7223859e-5,"MEAN_MOTION_DOT":-1.011e-5,"MEAN_MOTION_DDOT":0},{"OBJECT_NAME":"EDISON-1","OBJECT_ID":"2025-009B","EPOCH":"2026-03-09T19:16:13.822464","MEAN_MOTION":15.29042904,"ECCENTRICITY":0.00043285,"INCLINATION":97.4042,"RA_OF_ASC_NODE":151.6286,"ARG_OF_PERICENTER":306.4185,"MEAN_ANOMALY":53.6655,"EPHEMERIS_TYPE":0,"CLASSIFICATION_TYPE":"U","NORAD_CAT_ID":62610,"ELEMENT_SET_NO":999,"REV_AT_EPOCH":6375,"BSTAR":0.00052814963,"MEAN_MOTION_DOT":0.00014835,"MEAN_MOTION_DDOT":0}]
